NORAD_CAT_ID,OBJECT_NAME,OBJECT_TYPE,EPOCH,MEAN_MOTION,ECCENTRICITY,INCLINATION,RA_OF_ASC_NODE,ARG_OF_PERICENTER,MEAN_ANOMALY,BSTAR,MEAN_MOTION_DOT,MEAN_MOTION_DDOT,TLE_LINE0,TLE_LINE1,TLE_LINE2,SEMIMAJOR_AXIS,PERIOD,APOGEE,PERIGEE,DECAYED
53143.0,STARLINK-4102,PAYLOAD,2023-12-25 22:58:18,15.0883832,0.0001433,53.2163,186.705,94.3294,265.7862,7.9832e-05,9.83e-06,0.0,0 STARLINK-4102,1 53143U 22083M   23359.95715586  .00000983  00000-0  79832-4 0  9992,2 53143  53.2163 186.7050 0001433  94.3294 265.7862 15.08838320 79737,6917.886,95.438,540.742,538.759,0.0
53143.0,STARLINK-4102,PAYLOAD,2023-12-26 18:02:56,15.08839974,0.0001437,53.2165,183.136,98.9516,261.1639,7.142e-06,-1.74e-06,0.0,0 STARLINK-4102,1 53143U 22083M   23360.75203749 -.00000174  00000-0  71420-5 0  9994,2 53143  53.2165 183.1360 0001437  98.9516 261.1639 15.08839974 79856,6917.88,95.438,540.74,538.751,0.0
53143.0,STARLINK-4102,PAYLOAD,2023-12-27 11:32:10,15.08836508,0.0001419,53.2165,179.8653,97.6511,262.4642,5.7135e-05,6.21e-06,0.0,0 STARLINK-4102,1 53143U 22083M   23361.48067974  .00000621  00000-0  57135-4 0  9995,2 53143  53.2165 179.8653 0001419  97.6511 262.4642 15.08836508 80595,6917.891,95.438,540.738,538.774,0.0
53143.0,STARLINK-4102,PAYLOAD,2023-12-27 19:29:06,15.08840365,0.0001364,53.2163,178.3796,94.4847,265.6301,6.4003e-05,7.31e-06,0.0,0 STARLINK-4102,1 53143U 22083M   23361.81187742  .00000731  00000-0  64003-4 0  9992,2 53143  53.2163 178.3796 0001364  94.4847 265.6301 15.08840365 80011,6917.879,95.438,540.688,538.801,0.0
53143.0,STARLINK-4102,PAYLOAD,2023-12-28 19:19:53,15.08839954,0.0001331,53.2163,173.9207,87.5343,272.5801,7.6901e-05,9.36e-06,0.0,0 STARLINK-4102,1 53143U 22083M   23362.80547890  .00000936  00000-0  76901-4 0  9993,2 53143  53.2163 173.9207 0001331  87.5343 272.5801 15.08839954 80796,6917.881,95.438,540.666,538.825,0.0
53143.0,STARLINK-4102,PAYLOAD,2023-12-28 20:55:16,15.08840518,0.000133,53.2163,173.6232,88.2071,271.9073,7.8663e-05,9.64e-06,0.0,0 STARLINK-4102,1 53143U 22083M   23362.87171798  .00000964  00000-0  78663-4 0  9998,2 53143  53.2163 173.6232 0001330  88.2071 271.9073 15.08840518 80170,6917.879,95.438,540.664,538.824,0.0
53143.0,STARLINK-4102,PAYLOAD,2023-12-29 11:13:45,15.08836958,0.0001245,53.2161,170.9454,105.6995,254.4134,8.154e-06,-1.58e-06,0.0,0 STARLINK-4102,1 53143U 22083M   23363.46788268 -.00000158  00000-0  81540-5 0  9995,2 53143  53.2161 170.9454 0001245 105.6995 254.4134 15.08836958 80265,6917.89,95.438,540.616,538.893,0.0
53143.0,STARLINK-4102,PAYLOAD,2023-12-29 17:35:17,15.088375,0.0001312,53.2163,169.7575,92.5884,267.5258,3.2162e-05,2.24e-06,0.0,0 STARLINK-4102,1 53143U 22083M   23363.73284245  .00000224  00000-0  32162-4 0  9999,2 53143  53.2163 169.7575 0001312  92.5884 267.5258 15.08837500 80304,6917.888,95.438,540.661,538.845,0.0
53143.0,STARLINK-4102,PAYLOAD,2023-12-30 14:15:17,15.08845469,0.0001416,53.2173,165.8917,117.4146,242.699,2.2782e-05,7.5e-07,0.0,0 STARLINK-4102,1 53143U 22083M   23364.59395748  .00000075  00000-0  22782-4 0  9996,2 53143  53.2173 165.8917 0001416 117.4146 242.6990 15.08845469 80439,6917.864,95.437,540.708,538.749,0.0
53143.0,STARLINK-4102,PAYLOAD,2023-12-30 20:36:51,15.08794181,0.0001489,53.2167,164.7019,108.993,251.1224,0.00077784,0.00012098,0.0,0 STARLINK-4102,1 53143U 22083M   23364.85892609  .00012098  00000-0  77784-3 0  9992,2 53143  53.2167 164.7019 0001489 108.9930 251.1224 15.08794181 80472,6918.02,95.44,540.916,538.855,0.0
53143.0,STARLINK-4102,PAYLOAD,2023-12-31 10:55:19,15.08839791,0.0001403,53.2172,162.024,97.0823,263.0329,2.8255e-05,1.62e-06,0.0,0 STARLINK-4102,1 53143U 22083M   23365.45508136  .00000162  00000-0  28255-4 0  9997,2 53143  53.2172 162.0240 0001403  97.0823 263.0329 15.08839791 81195,6917.881,95.438,540.717,538.775,0.0
53143.0,STARLINK-4102,PAYLOAD,2023-12-31 15:41:28,15.08805058,0.0001602,53.2173,161.1309,102.6176,257.4995,0.00054054,8.317e-05,0.0,0 STARLINK-4102,1 53143U 22083M   23365.65380732  .00008317  00000-0  54054-3 0  9994,2 53143  53.2173 161.1309 0001602 102.6176 257.4995 15.08805058 81226,6917.987,95.44,540.96,538.744,0.0
53143.0,STARLINK-4102,PAYLOAD,2024-01-01 10:46:05,15.08840056,0.0001509,53.2177,157.5631,110.0689,250.0466,1.5554e-05,-4e-07,0.0,0 STARLINK-4102,1 53143U 22083M   24001.44868035 -.00000040  00000-0  15554-4 0  9995,2 53143  53.2177 157.5631 0001509 110.0689 250.0466 15.08840056 81347,6917.88,95.438,540.789,538.701,0.0
53143.0,STARLINK-4102,PAYLOAD,2024-01-01 13:56:52,15.08842569,0.0001465,53.2175,156.969,105.5458,254.5696,3.1609e-05,2.15e-06,0.0,0 STARLINK-4102,1 53143U 22083M   24001.58115822  .00000215  00000-0  31609-4 0  9991,2 53143  53.2175 156.9690 0001465 105.5458 254.5696 15.08842569 80734,6917.873,95.437,540.751,538.724,0.0
53143.0,STARLINK-4102,PAYLOAD,2024-01-01 17:07:38,15.08843476,0.0001429,53.2176,156.3744,104.7534,255.3616,3.4049e-05,2.54e-06,0.0,0 STARLINK-4102,1 53143U 22083M   24001.71363732  .00000254  00000-0  34049-4 0  9995,2 53143  53.2176 156.3744 0001429 104.7534 255.3616 15.08843476 80756,6917.87,95.437,540.723,538.746,0.0
53143.0,STARLINK-4102,PAYLOAD,2024-01-02 13:47:39,15.08834647,0.0001347,53.2166,152.5104,91.7504,268.3642,1.292e-05,-8.2e-07,0.0,0 STARLINK-4102,1 53143U 22083M   24002.57476500 -.00000082  00000-0  12920-4 0  9992,2 53143  53.2166 152.5104 0001347  91.7504 268.3642 15.08834647 80881,6917.897,95.438,540.694,538.83,0.0
53143.0,STARLINK-4102,PAYLOAD,2024-01-02 15:23:02,15.08835105,0.0001346,53.2165,152.2131,91.2996,268.8151,1.6488e-05,-2.6e-07,0.0,0 STARLINK-4102,1 53143U 22083M   24002.64100476 -.00000026  00000-0  16488-4 0  9997,2 53143  53.2165 152.2131 0001346  91.2996 268.8151 15.08835105 81528,6917.895,95.438,540.691,538.829,0.0
53143.0,STARLINK-4102,PAYLOAD,2024-01-03 13:38:27,15.08834538,0.0001348,53.2165,148.0505,89.8264,270.2883,-7.8257e-06,-4.12e-06,0.0,0 STARLINK-4102,1 53143U 22083M   24003.56836896 -.00000412  00000-0 -78257-5 0  9994,2 53143  53.2165 148.0505 0001348  89.8264 270.2883 15.08834538 81033,6917.897,95.438,540.695,538.83,0.0
53143.0,STARLINK-4102,PAYLOAD,2024-01-03 16:49:13,15.08836995,0.0001353,53.2165,147.4564,86.7735,273.3412,1.3961e-05,-6.6e-07,0.0,0 STARLINK-4102,1 53143U 22083M   24003.70084728 -.00000066  00000-0  13961-4 0  9993,2 53143  53.2165 147.4564 0001353  86.7735 273.3412 15.08836995 81688,6917.89,95.438,540.691,538.819,0.0
53143.0,STARLINK-4102,PAYLOAD,2024-01-04 13:29:14,15.08836021,0.0001348,53.2165,143.5899,86.157,273.9577,6.7663e-05,7.89e-06,0.0,0 STARLINK-4102,1 53143U 22083M   24004.56196803  .00000789  00000-0  67663-4 0  9995,2 53143  53.2165 143.5899 0001348  86.1570 273.9577 15.08836021 81184,6917.893,95.438,540.69,538.825,0.0
53143.0,STARLINK-4102,PAYLOAD,2024-01-04 18:15:23,15.08839353,0.0001371,53.2167,142.6978,82.8129,277.3019,9.3907e-05,1.207e-05,0.0,0 STARLINK-4102,1 53143U 22083M   24004.76068569  .00001207  00000-0  93907-4 0  9990,2 53143  53.2167 142.6978 0001371  82.8129 277.3019 15.08839353 81846,6917.882,95.438,540.696,538.799,0.0
53143.0,STARLINK-4102,PAYLOAD,2024-01-05 14:55:24,15.08839183,0.0001432,53.2168,138.8326,77.6603,282.455,4.9336e-05,4.97e-06,0.0,0 STARLINK-4102,1 53143U 22083M   24005.62180946  .00000497  00000-0  49336-4 0  9997,2 53143  53.2168 138.8326 0001432  77.6603 282.4550 15.08839183 81341,6917.883,95.438,540.739,538.757,0.0
53143.0,STARLINK-4102,PAYLOAD,2024-01-05 16:30:47,15.08841473,0.0001464,53.2171,138.5351,76.9024,283.2132,6.7867e-05,7.92e-06,0.0,0 STARLINK-4102,1 53143U 22083M   24005.68804757  .00000792  00000-0  67867-4 0  9993,2 53143  53.2171 138.5351 0001464  76.9024 283.2132 15.08841473 81355,6917.876,95.437,540.754,538.728,0.0
53143.0,STARLINK-4102,PAYLOAD,2024-01-06 08:24:39,15.0880866,0.0001282,53.2182,135.5629,80.7946,279.3191,0.00039663,6.025e-05,0.0,0 STARLINK-4102,1 53143U 22083M   24006.35045140  .00006025  00000-0  39663-3 0  9998,2 53143  53.2182 135.5629 0001282  80.7946 279.3191 15.08808660 82089,6917.976,95.44,540.728,538.954,0.0
53143.0,STARLINK-4102,PAYLOAD,2024-01-06 17:56:57,15.08822805,0.0001317,53.218,133.7774,86.1353,273.9789,0.00033508,5.046e-05,0.0,0 STARLINK-4102,1 53143U 22083M   24006.74789074  .00005046  00000-0  33508-3 0  9996,2 53143  53.2180 133.7774 0001317  86.1353 273.9789 15.08822805 82146,6917.933,95.439,540.709,538.887,0.0
53143.0,STARLINK-4102,PAYLOAD,2024-01-07 11:26:12,15.08839961,0.0001441,53.2177,130.5045,96.9519,263.1637,1.316e-05,-7.9e-07,0.0,0 STARLINK-4102,1 53143U 22083M   24007.47652954 -.00000079  00000-0  13160-4 0  9998,2 53143  53.2177 130.5045 0001441  96.9519 263.1637 15.08839961 82255,6917.881,95.438,540.742,538.749,0.0
53143.0,STARLINK-4102,PAYLOAD,2024-01-07 14:36:58,15.08843606,0.0001476,53.2175,129.91,84.1965,275.9196,2.1867e-05,6e-07,0.0,0 STARLINK-4102,1 53143U 22083M   24007.60900781  .00000060  00000-0  21867-4 0  9999,2 53143  53.2175 129.9100 0001476  84.1965 275.9196 15.08843606 81643,6917.869,95.437,540.755,538.713,0.0
53143.0,STARLINK-4102,PAYLOAD,2024-01-07 17:47:44,15.08845261,0.0001411,53.2172,129.3143,95.9527,264.1626,4.5651e-05,4.39e-06,0.0,0 STARLINK-4102,1 53143U 22083M   24007.74148505  .00000439  00000-0  45651-4 0  9999,2 53143  53.2172 129.3143 0001411  95.9527 264.1626 15.08845261 81663,6917.864,95.437,540.705,538.753,0.0
53143.0,STARLINK-4102,PAYLOAD,2024-01-08 14:27:45,15.08845218,0.0001396,53.2178,125.4474,101.7444,258.3705,2.6167e-05,1.29e-06,0.0,0 STARLINK-4102,1 53143U 22083M   24008.60260511  .00000129  00000-0  26167-4 0  9994,2 53143  53.2178 125.4474 0001396 101.7444 258.3705 15.08845218 81798,6917.864,95.437,540.695,538.764,0.0
53143.0,STARLINK-4102,PAYLOAD,2024-01-09 14:18:31,15.08848065,0.000139,53.2177,120.9899,96.5057,263.6094,3.1797e-05,2.18e-06,0.0,0 STARLINK-4102,1 53143U 22083M   24009.59620320  .00000218  00000-0  31797-4 0  9995,2 53143  53.2177 120.9899 0001390  96.5057 263.6094 15.08848065 81943,6917.856,95.437,540.682,538.759,0.0
